{
  "norad_id": 58295,
  "name": "SPACEVAN-001",
  "history": [
    {
      "epoch": "2026-03-27T03:46:28.523712Z",
      "apogee_km": 401.98129409606463,
      "perigee_km": 390.9879800731351,
      "latitude_deg": 4.563102325626907e-05,
      "longitude_deg": -61.12576106398983,
      "height_km": 394.99724392013655,
      "semi_major_axis_km": 6774.6216370846,
      "eccentricity": 0.00081136,
      "inclination_deg": 97.3972,
      "raan_deg": 180.0892,
      "arg_perigee_deg": 32.8245,
      "mean_anomaly_deg": 327.3513,
      "mean_motion_rev_day": 15.56951896
    }
  ]
}